CCSDS_OMM_VERS = 2.0
CREATION_DATE  = 
ORIGINATOR     = 

OBJECT_NAME    = STARLINK-36779
OBJECT_ID      = 2026-034V
CENTER_NAME    = EARTH
REF_FRAME      = TEME
TIME_SYSTEM    = UTC
MEAN_ELEMENT_THEORY = SGP/SGP4

EPOCH          = 2026-02-25T17:27:44.320320
MEAN_MOTION    = 15.95785069
ECCENTRICITY   = .00005171
INCLINATION    = 53.1522
RA_OF_ASC_NODE = 271.3996
ARG_OF_PERICENTER = 52.4052
MEAN_ANOMALY   = 307.7024

EPHEMERIS_TYPE = 0
CLASSIFICATION_TYPE = U
NORAD_CAT_ID   = 67869
ELEMENT_SET_NO = 999
REV_AT_EPOCH   = 204
BSTAR          = -.12131519E-2
MEAN_MOTION_DOT = -.507578E-2
MEAN_MOTION_DDOT = .95556763E-4

CCSDS_OMM_VERS = 2.0
CREATION_DATE  = 
ORIGINATOR     = 

OBJECT_NAME    = STARLINK-36770
OBJECT_ID      = 2026-034W
CENTER_NAME    = EARTH
REF_FRAME      = TEME
TIME_SYSTEM    = UTC
MEAN_ELEMENT_THEORY = SGP/SGP4

EPOCH          = 2026-02-25T23:27:46.480320
MEAN_MOTION    = 15.95378172
ECCENTRICITY   = .0001809
INCLINATION    = 53.1513
RA_OF_ASC_NODE = 270.1116
ARG_OF_PERICENTER = 14.5455
MEAN_ANOMALY   = 345.5626

EPHEMERIS_TYPE = 0
CLASSIFICATION_TYPE = U
NORAD_CAT_ID   = 67870
ELEMENT_SET_NO = 999
REV_AT_EPOCH   = 208
BSTAR          = -.79811764E-3
MEAN_MOTION_DOT = -.328165E-2
MEAN_MOTION_DDOT = .47077495E-4

CCSDS_OMM_VERS = 2.0
CREATION_DATE  = 
ORIGINATOR     = 

OBJECT_NAME    = STARLINK-36769
OBJECT_ID      = 2026-034X
CENTER_NAME    = EARTH
REF_FRAME      = TEME
TIME_SYSTEM    = UTC
MEAN_ELEMENT_THEORY = SGP/SGP4

EPOCH          = 2026-02-25T23:28:11.060256
MEAN_MOTION    = 15.95244614
ECCENTRICITY   = .00018456
INCLINATION    = 53.1512
RA_OF_ASC_NODE = 270.1136
ARG_OF_PERICENTER = 13.3459
MEAN_ANOMALY   = 346.7618

EPHEMERIS_TYPE = 0
CLASSIFICATION_TYPE = U
NORAD_CAT_ID   = 67871
ELEMENT_SET_NO = 999
REV_AT_EPOCH   = 208
BSTAR          = -.81500107E-3
MEAN_MOTION_DOT = -.332644E-2
MEAN_MOTION_DDOT = .47987673E-4

CCSDS_OMM_VERS = 2.0
CREATION_DATE  = 
ORIGINATOR     = 

OBJECT_NAME    = STARLINK-36786
OBJECT_ID      = 2026-034Y
CENTER_NAME    = EARTH
REF_FRAME      = TEME
TIME_SYSTEM    = UTC
MEAN_ELEMENT_THEORY = SGP/SGP4

EPOCH          = 2026-02-25T20:26:55.400640
MEAN_MOTION    = 15.95852461
ECCENTRICITY   = .00011168
INCLINATION    = 53.1513
RA_OF_ASC_NODE = 270.7512
ARG_OF_PERICENTER = 316.2518
MEAN_ANOMALY   = 43.8422

EPHEMERIS_TYPE = 0
CLASSIFICATION_TYPE = U
NORAD_CAT_ID   = 67872
ELEMENT_SET_NO = 999
REV_AT_EPOCH   = 206
BSTAR          = -.99266741E-3
MEAN_MOTION_DOT = -.417657E-2
MEAN_MOTION_DDOT = .69036697E-4

CCSDS_OMM_VERS = 2.0
CREATION_DATE  = 
ORIGINATOR     = 

OBJECT_NAME    = STARLINK-36783
OBJECT_ID      = 2026-034Z
CENTER_NAME    = EARTH
REF_FRAME      = TEME
TIME_SYSTEM    = UTC
MEAN_ELEMENT_THEORY = SGP/SGP4

EPOCH          = 2026-02-25T20:26:31.441056
MEAN_MOTION    = 15.96052647
ECCENTRICITY   = .00012367
INCLINATION    = 53.1512
RA_OF_ASC_NODE = 270.7492
ARG_OF_PERICENTER = 312.9733
MEAN_ANOMALY   = 47.1193

EPHEMERIS_TYPE = 0
CLASSIFICATION_TYPE = U
NORAD_CAT_ID   = 67873
ELEMENT_SET_NO = 999
REV_AT_EPOCH   = 206
BSTAR          = -.71779564E-3
MEAN_MOTION_DOT = -.306385E-2
MEAN_MOTION_DDOT = .42796972E-4

CCSDS_OMM_VERS = 2.0
CREATION_DATE  = 
ORIGINATOR     = 

OBJECT_NAME    = STARLINK-36730
OBJECT_ID      = 2026-034AA
CENTER_NAME    = EARTH
REF_FRAME      = TEME
TIME_SYSTEM    = UTC
MEAN_ELEMENT_THEORY = SGP/SGP4

EPOCH          = 2026-02-25T20:26:08.820672
MEAN_MOTION    = 15.96111075
ECCENTRICITY   = .0001003
INCLINATION    = 53.1516
RA_OF_ASC_NODE = 270.7479
ARG_OF_PERICENTER = 324.4302
MEAN_ANOMALY   = 35.6660

EPHEMERIS_TYPE = 0
CLASSIFICATION_TYPE = U
NORAD_CAT_ID   = 67874
ELEMENT_SET_NO = 999
REV_AT_EPOCH   = 206
BSTAR          = -.9707505E-3
MEAN_MOTION_DOT = -.414262E-2
MEAN_MOTION_DDOT = .68297557E-4

CCSDS_OMM_VERS = 2.0
CREATION_DATE  = 
ORIGINATOR     = 

OBJECT_NAME    = STARLINK-36727
OBJECT_ID      = 2026-034AB
CENTER_NAME    = EARTH
REF_FRAME      = TEME
TIME_SYSTEM    = UTC
MEAN_ELEMENT_THEORY = SGP/SGP4

EPOCH          = 2026-02-25T23:26:08.869920
MEAN_MOTION    = 15.95882588
ECCENTRICITY   = .00018488
INCLINATION    = 53.1521
RA_OF_ASC_NODE = 270.1035
ARG_OF_PERICENTER = 24.8693
MEAN_ANOMALY   = 335.2425

EPHEMERIS_TYPE = 0
CLASSIFICATION_TYPE = U
NORAD_CAT_ID   = 67875
ELEMENT_SET_NO = 999
REV_AT_EPOCH   = 208
BSTAR          = -.81396223E-3
MEAN_MOTION_DOT = -.343787E-2
MEAN_MOTION_DDOT = .50749432E-4

CCSDS_OMM_VERS = 2.0
CREATION_DATE  = 
ORIGINATOR     = 

OBJECT_NAME    = STARLINK-36743
OBJECT_ID      = 2026-034AC
CENTER_NAME    = EARTH
REF_FRAME      = TEME
TIME_SYSTEM    = UTC
MEAN_ELEMENT_THEORY = SGP/SGP4

EPOCH          = 2026-02-25T23:25:43.123584
MEAN_MOTION    = 15.96028427
ECCENTRICITY   = .00019603
INCLINATION    = 53.1514
RA_OF_ASC_NODE = 270.1018
ARG_OF_PERICENTER = 24.2040
MEAN_ANOMALY   = 335.9081

EPHEMERIS_TYPE = 0
CLASSIFICATION_TYPE = U
NORAD_CAT_ID   = 67876
ELEMENT_SET_NO = 999
REV_AT_EPOCH   = 208
BSTAR          = -.77181633E-3
MEAN_MOTION_DOT = -.328767E-2
MEAN_MOTION_DDOT = .47491463E-4

CCSDS_OMM_VERS = 2.0
CREATION_DATE  = 
ORIGINATOR     = 

OBJECT_NAME    = STARLINK-36784
OBJECT_ID      = 2026-034AD
CENTER_NAME    = EARTH
REF_FRAME      = TEME
TIME_SYSTEM    = UTC
MEAN_ELEMENT_THEORY = SGP/SGP4

EPOCH          = 2026-02-25T23:25:19.084512
MEAN_MOTION    = 15.96152430
ECCENTRICITY   = .00017917
INCLINATION    = 53.1520
RA_OF_ASC_NODE = 270.0995
ARG_OF_PERICENTER = 31.8132
MEAN_ANOMALY   = 328.3005

EPHEMERIS_TYPE = 0
CLASSIFICATION_TYPE = U
NORAD_CAT_ID   = 67877
ELEMENT_SET_NO = 999
REV_AT_EPOCH   = 208
BSTAR          = -.76865451E-3
MEAN_MOTION_DOT = -.329623E-2
MEAN_MOTION_DDOT = .47732501E-4

CCSDS_OMM_VERS = 2.0
CREATION_DATE  = 
ORIGINATOR     = 

OBJECT_NAME    = STARLINK-36689
OBJECT_ID      = 2026-034AE
CENTER_NAME    = EARTH
REF_FRAME      = TEME
TIME_SYSTEM    = UTC
MEAN_ELEMENT_THEORY = SGP/SGP4

EPOCH          = 2026-02-25T20:24:35.435232
MEAN_MOTION    = 15.96679284
ECCENTRICITY   = .00010617
INCLINATION    = 53.1516
RA_OF_ASC_NODE = 270.7404
ARG_OF_PERICENTER = 313.0263
MEAN_ANOMALY   = 47.0677

EPHEMERIS_TYPE = 0
CLASSIFICATION_TYPE = U
NORAD_CAT_ID   = 67878
ELEMENT_SET_NO = 999
REV_AT_EPOCH   = 206
BSTAR          = -.63674432E-3
MEAN_MOTION_DOT = -.281584E-2
MEAN_MOTION_DDOT = .38158262E-4

CCSDS_OMM_VERS = 2.0
CREATION_DATE  = 
ORIGINATOR     = 

OBJECT_NAME    = STARLINK-36818
OBJECT_ID      = 2026-035A
CENTER_NAME    = EARTH
REF_FRAME      = TEME
TIME_SYSTEM    = UTC
MEAN_ELEMENT_THEORY = SGP/SGP4

EPOCH          = 2026-02-25T18:29:03.187392
MEAN_MOTION    = 16.09212275
ECCENTRICITY   = .0003004
INCLINATION    = 97.2840
RA_OF_ASC_NODE = 348.0666
ARG_OF_PERICENTER = 131.4032
MEAN_ANOMALY   = 228.7510

EPHEMERIS_TYPE = 0
CLASSIFICATION_TYPE = U
NORAD_CAT_ID   = 67879
ELEMENT_SET_NO = 999
REV_AT_EPOCH   = 193
BSTAR          = .74554113E-3
MEAN_MOTION_DOT = .655345E-2
MEAN_MOTION_DDOT = .2275949E-3

CCSDS_OMM_VERS = 2.0
CREATION_DATE  = 
ORIGINATOR     = 

OBJECT_NAME    = STARLINK-36821
OBJECT_ID      = 2026-035B
CENTER_NAME    = EARTH
REF_FRAME      = TEME
TIME_SYSTEM    = UTC
MEAN_ELEMENT_THEORY = SGP/SGP4

EPOCH          = 2026-02-25T18:28:38.077824
MEAN_MOTION    = 16.09355761
ECCENTRICITY   = .00032571
INCLINATION    = 97.2840
RA_OF_ASC_NODE = 348.0672
ARG_OF_PERICENTER = 157.0244
MEAN_ANOMALY   = 203.1186

EPHEMERIS_TYPE = 0
CLASSIFICATION_TYPE = U
NORAD_CAT_ID   = 67880
ELEMENT_SET_NO = 999
REV_AT_EPOCH   = 193
BSTAR          = .69999271E-3
MEAN_MOTION_DOT = .621305E-2
MEAN_MOTION_DDOT = .20336638E-3

CCSDS_OMM_VERS = 2.0
CREATION_DATE  = 
ORIGINATOR     = 

OBJECT_NAME    = STARLINK-36808
OBJECT_ID      = 2026-035C
CENTER_NAME    = EARTH
REF_FRAME      = TEME
TIME_SYSTEM    = UTC
MEAN_ELEMENT_THEORY = SGP/SGP4

EPOCH          = 2026-02-25T18:28:52.085856
MEAN_MOTION    = 16.08962778
ECCENTRICITY   = .00011036
INCLINATION    = 97.2835
RA_OF_ASC_NODE = 348.0672
ARG_OF_PERICENTER = 123.8640
MEAN_ANOMALY   = 236.2748

EPHEMERIS_TYPE = 0
CLASSIFICATION_TYPE = U
NORAD_CAT_ID   = 67881
ELEMENT_SET_NO = 999
REV_AT_EPOCH   = 193
BSTAR          = .48028813E-4
MEAN_MOTION_DOT = .41012E-3
MEAN_MOTION_DDOT = .3071735E-5

CCSDS_OMM_VERS = 2.0
CREATION_DATE  = 
ORIGINATOR     = 

OBJECT_NAME    = STARLINK-36817
OBJECT_ID      = 2026-035D
CENTER_NAME    = EARTH
REF_FRAME      = TEME
TIME_SYSTEM    = UTC
MEAN_ELEMENT_THEORY = SGP/SGP4

EPOCH          = 2026-02-25T22:56:50.590176
MEAN_MOTION    = 16.09117491
ECCENTRICITY   = .00001205
INCLINATION    = 97.2838
RA_OF_ASC_NODE = 348.2733
ARG_OF_PERICENTER = 334.4435
MEAN_ANOMALY   = 25.6843

EPHEMERIS_TYPE = 0
CLASSIFICATION_TYPE = U
NORAD_CAT_ID   = 67882
ELEMENT_SET_NO = 999
REV_AT_EPOCH   = 196
BSTAR          = .16453526E-4
MEAN_MOTION_DOT = .13712E-3
MEAN_MOTION_DDOT = .2392348E-5

CCSDS_OMM_VERS = 2.0
CREATION_DATE  = 
ORIGINATOR     = 

OBJECT_NAME    = STARLINK-36856
OBJECT_ID      = 2026-035E
CENTER_NAME    = EARTH
REF_FRAME      = TEME
TIME_SYSTEM    = UTC
MEAN_ELEMENT_THEORY = SGP/SGP4

EPOCH          = 2026-02-25T18:28:23.115072
MEAN_MOTION    = 16.09229842
ECCENTRICITY   = .00007463
INCLINATION    = 97.2835
RA_OF_ASC_NODE = 348.0673
ARG_OF_PERICENTER = 98.2349
MEAN_ANOMALY   = 261.9019

EPHEMERIS_TYPE = 0
CLASSIFICATION_TYPE = U
NORAD_CAT_ID   = 67883
ELEMENT_SET_NO = 999
REV_AT_EPOCH   = 193
BSTAR          = .15660913E-4
MEAN_MOTION_DOT = .13117E-3
MEAN_MOTION_DDOT = .2385023E-5

